{
  "type": "FeatureCollection",
  "features": [
    {
      "type": "Feature",
      "properties": {
        "norad_id": 29887,
        "name": "FENGYUN 1C DEB",
        "group": "fengyun-1c-debris",
        "lat": 52.67186625704865,
        "lon": 65.87501020676712,
        "alt_km": 737.2645187115131,
        "timestamp": "2025-12-21T18:54:58.768613+00:00",
        "meta_object_name": "FENGYUN 1C DEB",
        "meta_object_id": "1999-025GH",
        "meta_epoch": "2025-12-21T00:49:53.253696",
        "meta_mean_motion": 14.33741561,
        "meta_eccentricity": 0.02865083,
        "meta_inclination": 98.7176,
        "meta_ra_of_asc_node": 76.7223,
        "meta_arg_of_pericenter": 334.6271,
        "meta_mean_anomaly": 148.6309,
        "meta_ephemeris_type": 0,
        "meta_classification_type": "U",
        "meta_norad_cat_id": 29887,
        "meta_element_set_no": 999,
        "meta_rev_at_epoch": 98093,
        "meta_bstar": 0.00035917377,
        "meta_mean_motion_dot": 1.522e-05,
        "meta_mean_motion_ddot": 0,
        "tle_line1": "1 29887U 99025GH  25355.03464414  .00001522  00000+0  35917-3 0  9992",
        "tle_line2": "2 29887  98.7176  76.7223 0286508 334.6271 148.6309 14.33741561980931"
      },
      "geometry": {
        "type": "Point",
        "coordinates": [
          65.87501020676712,
          52.67186625704865
        ]
      }
    },
    {
      "type": "Feature",
      "properties": {
        "norad_id": 29888,
        "name": "FENGYUN 1C DEB",
        "group": "fengyun-1c-debris",
        "lat": 40.025529710474366,
        "lon": -178.95837397090168,
        "alt_km": 671.0956154033884,
        "timestamp": "2025-12-21T18:54:58.768623+00:00",
        "meta_object_name": "FENGYUN 1C DEB",
        "meta_object_id": "1999-025GJ",
        "meta_epoch": "2025-12-21T11:58:12.846720",
        "meta_mean_motion": 14.19874371,
        "meta_eccentricity": 0.02747062,
        "meta_inclination": 99.1913,
        "meta_ra_of_asc_node": 188.5563,
        "meta_arg_of_pericenter": 0.4841,
        "meta_mean_anomaly": 359.6551,
        "meta_ephemeris_type": 0,
        "meta_classification_type": "U",
        "meta_norad_cat_id": 29888,
        "meta_element_set_no": 999,
        "meta_rev_at_epoch": 97628,
        "meta_bstar": 0.00029834463,
        "meta_mean_motion_dot": 8.69e-06,
        "meta_mean_motion_ddot": 0,
        "tle_line1": "1 29888U 99025GJ  25355.49875980  .00000869  00000+0  29834-3 0  9991",
        "tle_line2": "2 29888  99.1913 188.5563 0274706   0.4841 359.6551 14.19874371976289"
      },
      "geometry": {
        "type": "Point",
        "coordinates": [
          -178.95837397090168,
          40.025529710474366
        ]
      }
    },
    {
      "type": "Feature",
      "properties": {
        "norad_id": 29889,
        "name": "FENGYUN 1C DEB",
        "group": "fengyun-1c-debris",
        "lat": -79.9723330003181,
        "lon": -175.4293481698447,
        "alt_km": 873.5982901055904,
        "timestamp": "2025-12-21T18:54:58.768633+00:00",
        "meta_object_name": "FENGYUN 1C DEB",
        "meta_object_id": "1999-025GK",
        "meta_epoch": "2025-12-21T07:42:15.042816",
        "meta_mean_motion": 14.13520818,
        "meta_eccentricity": 0.0154129,
        "meta_inclination": 99.4773,
        "meta_ra_of_asc_node": 113.2247,
        "meta_arg_of_pericenter": 15.2466,
        "meta_mean_anomaly": 43.7846,
        "meta_ephemeris_type": 0,
        "meta_classification_type": "U",
        "meta_norad_cat_id": 29889,
        "meta_element_set_no": 999,
        "meta_rev_at_epoch": 97440,
        "meta_bstar": 0.00022073,
        "meta_mean_motion_dot": 4.16e-06,
        "meta_mean_motion_ddot": 0,
        "tle_line1": "1 29889U 99025GK  25355.32100744  .00000416  00000+0  22073-3 0  9999",
        "tle_line2": "2 29889  99.4773 113.2247 0154129  15.2466  43.7846 14.13520818974402"
      },
      "geometry": {
        "type": "Point",
        "coordinates": [
          -175.4293481698447,
          -79.9723330003181
        ]
      }
    },
    {
      "type": "Feature",
      "properties": {
        "norad_id": 29890,
        "name": "FENGYUN 1C DEB",
        "group": "fengyun-1c-debris",
        "lat": 80.45390174155972,
        "lon": 35.0712398285808,
        "alt_km": 799.5968325158346,
        "timestamp": "2025-12-21T18:54:58.768643+00:00",
        "meta_object_name": "FENGYUN 1C DEB",
        "meta_object_id": "1999-025GL",
        "meta_epoch": "2025-12-21T06:41:22.532928",
        "meta_mean_motion": 14.23066362,
        "meta_eccentricity": 0.00144811,
        "meta_inclination": 99.4686,
        "meta_ra_of_asc_node": 117.4392,
        "meta_arg_of_pericenter": 49.8878,
        "meta_mean_anomaly": 310.3564,
        "meta_ephemeris_type": 0,
        "meta_classification_type": "U",
        "meta_norad_cat_id": 29890,
        "meta_element_set_no": 999,
        "meta_rev_at_epoch": 97572,
        "meta_bstar": 0.00065565297,
        "meta_mean_motion_dot": 1.43e-05,
        "meta_mean_motion_ddot": 0,
        "tle_line1": "1 29890U 99025GL  25355.27873302  .00001430  00000+0  65565-3 0  9992",
        "tle_line2": "2 29890  99.4686 117.4392 0014481  49.8878 310.3564 14.23066362975726"
      },
      "geometry": {
        "type": "Point",
        "coordinates": [
          35.0712398285808,
          80.45390174155972
        ]
      }
    },
    {
      "type": "Feature",
      "properties": {
        "norad_id": 29891,
        "name": "FENGYUN 1C DEB",
        "group": "fengyun-1c-debris",
        "lat": -15.981132997397012,
        "lon": 0.019578744974070438,
        "alt_km": 912.7319651025673,
        "timestamp": "2025-12-21T18:54:58.768654+00:00",
        "meta_object_name": "FENGYUN 1C DEB",
        "meta_object_id": "1999-025GM",
        "meta_epoch": "2025-12-21T12:44:54.869568",
        "meta_mean_motion": 14.0000969,
        "meta_eccentricity": 0.00610665,
        "meta_inclination": 98.727,
        "meta_ra_of_asc_node": 357.2532,
        "meta_arg_of_pericenter": 235.6062,
        "meta_mean_anomaly": 253.1519,
        "meta_ephemeris_type": 0,
        "meta_classification_type": "U",
        "meta_norad_cat_id": 29891,
        "meta_element_set_no": 999,
        "meta_rev_at_epoch": 96611,
        "meta_bstar": 0.00048315718,
        "meta_mean_motion_dot": 6.8e-06,
        "meta_mean_motion_ddot": 0,
        "tle_line1": "1 29891U 99025GM  25355.53119062  .00000680  00000+0  48316-3 0  9999",
        "tle_line2": "2 29891  98.7270 357.2532 0061066 235.6062 253.1519 14.00009690966112"
      },
      "geometry": {
        "type": "Point",
        "coordinates": [
          0.019578744974070438,
          -15.981132997397012
        ]
      }
    },
    {
      "type": "Feature",
      "properties": {
        "norad_id": 29892,
        "name": "FENGYUN 1C DEB",
        "group": "fengyun-1c-debris",
        "lat": 5.499650392800886,
        "lon": 142.9758182628073,
        "alt_km": 794.2358287693742,
        "timestamp": "2025-12-21T18:54:58.768663+00:00",
        "meta_object_name": "FENGYUN 1C DEB",
        "meta_object_id": "1999-025GN",
        "meta_epoch": "2025-12-21T08:58:09.228288",
        "meta_mean_motion": 14.32338021,
        "meta_eccentricity": 0.0192124,
        "meta_inclination": 99.1804,
        "meta_ra_of_asc_node": 143.4292,
        "meta_arg_of_pericenter": 272.391,
        "meta_mean_anomaly": 115.1562,
        "meta_ephemeris_type": 0,
        "meta_classification_type": "U",
        "meta_norad_cat_id": 29892,
        "meta_element_set_no": 999,
        "meta_rev_at_epoch": 96773,
        "meta_bstar": 0.0024664783,
        "meta_mean_motion_dot": 8.126e-05,
        "meta_mean_motion_ddot": 0,
        "tle_line1": "1 29892U 99025GN  25355.37371792  .00008126  00000+0  24665-2 0  9995",
        "tle_line2": "2 29892  99.1804 143.4292 0192124 272.3910 115.1562 14.32338021967731"
      },
      "geometry": {
        "type": "Point",
        "coordinates": [
          142.9758182628073,
          5.499650392800886
        ]
      }
    },
    {
      "type": "Feature",
      "properties": {
        "norad_id": 29893,
        "name": "FENGYUN 1C DEB",
        "group": "fengyun-1c-debris",
        "lat": -30.15996986243154,
        "lon": -94.03185617271602,
        "alt_km": 950.3792807696364,
        "timestamp": "2025-12-21T18:54:58.768673+00:00",
        "meta_object_name": "FENGYUN 1C DEB",
        "meta_object_id": "1999-025GP",
        "meta_epoch": "2025-12-21T12:48:44.113824",
        "meta_mean_motion": 13.79465349,
        "meta_eccentricity": 0.01739195,
        "meta_inclination": 98.5531,
        "meta_ra_of_asc_node": 90.755,
        "meta_arg_of_pericenter": 129.7201,
        "meta_mean_anomaly": 256.3792,
        "meta_ephemeris_type": 0,
        "meta_classification_type": "U",
        "meta_norad_cat_id": 29893,
        "meta_element_set_no": 999,
        "meta_rev_at_epoch": 95261,
        "meta_bstar": 0.00016560092,
        "meta_mean_motion_dot": 1.54e-06,
        "meta_mean_motion_ddot": 0,
        "tle_line1": "1 29893U 99025GP  25355.53384391  .00000154  00000+0  16560-3 0  9992",
        "tle_line2": "2 29893  98.5531  90.7550 0173919 129.7201 256.3792 13.79465349952610"
      },
      "geometry": {
        "type": "Point",
        "coordinates": [
          -94.03185617271602,
          -30.15996986243154
        ]
      }
    }
  ]
}